ONEWEB-0197             
1 48236U 21031AC  26085.33414662 -.00000140  00000+0 -41187-3 0  9990
2 48236  87.8951 306.2266 0001341  83.1303 276.9980 13.14504407237300
ONEWEB-0194             
1 48237U 21031AD  26085.31367602  .00000031  00000+0  49041-4 0  9995
2 48237  87.8957 306.2487 0001739  92.1417 267.9912 13.14504522237470
ONEWEB-0193             
1 48238U 21031AE  26085.55787692 -.00000188  00000+0 -54037-3 0  9992
2 48238  87.8955 306.1918 0001778  99.0632 261.0699 13.14503856237459
ONEWEB-0191             
1 48239U 21031AF  26085.34062811 -.00000095  00000+0 -29117-3 0  9997
2 48239  87.8953 306.2307 0001603  86.3368 273.7945 13.14504221237285
ONEWEB-0195             
1 48240U 21031AG  26085.54598912 -.00000062  00000+0 -20170-3 0  9991
2 48240  87.8955 306.1862 0001994  76.5570 283.5782 13.14503692237293
ONEWEB-0201             
1 48241U 21031AH  26085.53423276  .00000149  00000+0  36814-3 0  9997
2 48241  87.8947 306.2159 0001449  71.6547 288.4740 13.14501649237524
ONEWEB-0207             
1 48242U 21031AJ  26085.36202935  .00000207  00000+0  52367-3 0  9992
2 48242  87.8958 306.2240 0001485  76.6148 283.5147 13.14505355237413
ONEWEB-0208             
1 48243U 21031AK  26085.11544051 -.00000135  00000+0 -39955-3 0  9994
2 48243  87.8954 306.2853 0001917  79.9415 280.1931 13.14503873237397
ONEWEB-0200             
1 48244U 21031AL  26085.30733472  .00000101  00000+0  23922-3 0  9991
2 48244  87.8954 306.2356 0001699  80.4611 279.6711 13.14503343237344
ONEWEB-0217             
1 48245U 21031AM  26085.32318601 -.00000176  00000+0 -50896-3 0  9991
2 48245  87.8957 306.2325 0001969  77.9473 282.1878 13.14504515237290
ONEWEB-0211             
1 48767U 21045A   26085.32910330 -.00000043  00000+0 -14728-3 0  9999
2 48767  87.8928 275.6389 0002398  86.5374 273.6031 13.16192036233542
ONEWEB-0223             
1 48768U 21045B   26085.29078237  .00000149  00000+0  36286-3 0  9995
2 48768  87.8933 275.7328 0002132  93.9245 266.2129 13.15548972233503
ONEWEB-0230             
1 48769U 21045C   26085.49043293 -.00000030  00000+0 -11332-3 0  9998
2 48769  87.8923 275.7141 0001595  94.9297 265.2016 13.15548872233790
ONEWEB-0237             
1 48770U 21045D   26085.25116699 -.00000094  00000+0 -28354-3 0  9997
2 48770  87.8921 275.7637 0001919  97.6854 262.4494 13.15548725233481
ONEWEB-0235             
1 48771U 21045E   26085.53004161  .00000105  00000+0  24445-3 0  9997
2 48771  87.8936 275.6857 0002145  96.5762 263.5613 13.15549084233517
ONEWEB-0242             
1 48772U 21045F   26084.99130005  .00000013  00000+0 -28565-6 0  9993
2 48772  87.8936 275.7892 0001802  98.1784 261.9550 13.15549182233486
ONEWEB-0241             
1 48773U 21045G   26085.43497264  .00000216  00000+0  54097-3 0  9997
2 48773  87.8924 275.7282 0002087  89.4006 270.7363 13.15549288233457
