[{"OBJECT_NAME":"ONEWEB-0197","OBJECT_ID":"2021-031AC","EPOCH":"2026-03-26T08:01:10.267968","MEAN_MOTION":13.14504407,"ECCENTRICITY":0.0001341,"INCLINATION":87.8951,"RA_OF_ASC_NODE":306.2266,"ARG_OF_PERICENTER":83.1303,"MEAN_ANOMALY":276.998,"EPHEMERIS_TYPE":0,"CLASSIFICATION_TYPE":"U","NORAD_CAT_ID":48236,"ELEMENT_SET_NO":999,"REV_AT_EPOCH":23730,"BSTAR":-0.00041187,"MEAN_MOTION_DOT":-1.4e-6,"MEAN_MOTION_DDOT":0},{"OBJECT_NAME":"ONEWEB-0194","OBJECT_ID":"2021-031AD","EPOCH":"2026-03-26T07:31:41.608128","MEAN_MOTION":13.14504522,"ECCENTRICITY":0.0001739,"INCLINATION":87.8957,"RA_OF_ASC_NODE":306.2487,"ARG_OF_PERICENTER":92.1417,"MEAN_ANOMALY":267.9912,"EPHEMERIS_TYPE":0,"CLASSIFICATION_TYPE":"U","NORAD_CAT_ID":48237,"ELEMENT_SET_NO":999,"REV_AT_EPOCH":23747,"BSTAR":4.9041e-5,"MEAN_MOTION_DOT":3.1e-7,"MEAN_MOTION_DDOT":0},{"OBJECT_NAME":"ONEWEB-0193","OBJECT_ID":"2021-031AE","EPOCH":"2026-03-26T13:23:20.565888","MEAN_MOTION":13.14503856,"ECCENTRICITY":0.0001778,"INCLINATION":87.8955,"RA_OF_ASC_NODE":306.1918,"ARG_OF_PERICENTER":99.0632,"MEAN_ANOMALY":261.0699,"EPHEMERIS_TYPE":0,"CLASSIFICATION_TYPE":"U","NORAD_CAT_ID":48238,"ELEMENT_SET_NO":999,"REV_AT_EPOCH":23745,"BSTAR":-0.00054037,"MEAN_MOTION_DOT":-1.88e-6,"MEAN_MOTION_DDOT":0},{"OBJECT_NAME":"ONEWEB-0191","OBJECT_ID":"2021-031AF","EPOCH":"2026-03-26T08:10:30.268704","MEAN_MOTION":13.14504221,"ECCENTRICITY":0.0001603,"INCLINATION":87.8953,"RA_OF_ASC_NODE":306.2307,"ARG_OF_PERICENTER":86.3368,"MEAN_ANOMALY":273.7945,"EPHEMERIS_TYPE":0,"CLASSIFICATION_TYPE":"U","NORAD_CAT_ID":48239,"ELEMENT_SET_NO":999,"REV_AT_EPOCH":23728,"BSTAR":-0.00029117,"MEAN_MOTION_DOT":-9.5e-7,"MEAN_MOTION_DDOT":0},{"OBJECT_NAME":"ONEWEB-0195","OBJECT_ID":"2021-031AG","EPOCH":"2026-03-26T13:06:13.459968","MEAN_MOTION":13.14503692,"ECCENTRICITY":0.0001994,"INCLINATION":87.8955,"RA_OF_ASC_NODE":306.1862,"ARG_OF_PERICENTER":76.557,"MEAN_ANOMALY":283.5782,"EPHEMERIS_TYPE":0,"CLASSIFICATION_TYPE":"U","NORAD_CAT_ID":48240,"ELEMENT_SET_NO":999,"REV_AT_EPOCH":23729,"BSTAR":-0.0002017,"MEAN_MOTION_DOT":-6.2e-7,"MEAN_MOTION_DDOT":0},{"OBJECT_NAME":"ONEWEB-0201","OBJECT_ID":"2021-031AH","EPOCH":"2026-03-26T12:49:17.710464","MEAN_MOTION":13.14501649,"ECCENTRICITY":0.0001449,"INCLINATION":87.8947,"RA_OF_ASC_NODE":306.2159,"ARG_OF_PERICENTER":71.6547,"MEAN_ANOMALY":288.474,"EPHEMERIS_TYPE":0,"CLASSIFICATION_TYPE":"U","NORAD_CAT_ID":48241,"ELEMENT_SET_NO":999,"REV_AT_EPOCH":23752,"BSTAR":0.00036814,"MEAN_MOTION_DOT":1.49e-6,"MEAN_MOTION_DDOT":0},{"OBJECT_NAME":"ONEWEB-0207","OBJECT_ID":"2021-031AJ","EPOCH":"2026-03-26T08:41:19.335840","MEAN_MOTION":13.14505355,"ECCENTRICITY":0.0001485,"INCLINATION":87.8958,"RA_OF_ASC_NODE":306.224,"ARG_OF_PERICENTER":76.6148,"MEAN_ANOMALY":283.5147,"EPHEMERIS_TYPE":0,"CLASSIFICATION_TYPE":"U","NORAD_CAT_ID":48242,"ELEMENT_SET_NO":999,"REV_AT_EPOCH":23741,"BSTAR":0.00052367,"MEAN_MOTION_DOT":2.07e-6,"MEAN_MOTION_DDOT":0},{"OBJECT_NAME":"ONEWEB-0208","OBJECT_ID":"2021-031AK","EPOCH":"2026-03-26T02:46:14.060064","MEAN_MOTION":13.14503873,"ECCENTRICITY":0.00019173,"INCLINATION":87.8954,"RA_OF_ASC_NODE":306.2853,"ARG_OF_PERICENTER":79.9415,"MEAN_ANOMALY":280.1931,"EPHEMERIS_TYPE":0,"CLASSIFICATION_TYPE":"U","NORAD_CAT_ID":48243,"ELEMENT_SET_NO":999,"REV_AT_EPOCH":23739,"BSTAR":-0.00039954746,"MEAN_MOTION_DOT":-1.35e-6,"MEAN_MOTION_DDOT":0},{"OBJECT_NAME":"ONEWEB-0200","OBJECT_ID":"2021-031AL","EPOCH":"2026-03-26T07:22:33.719808","MEAN_MOTION":13.14503343,"ECCENTRICITY":0.0001699,"INCLINATION":87.8954,"RA_OF_ASC_NODE":306.2356,"ARG_OF_PERICENTER":80.4611,"MEAN_ANOMALY":279.6711,"EPHEMERIS_TYPE":0,"CLASSIFICATION_TYPE":"U","NORAD_CAT_ID":48244,"ELEMENT_SET_NO":999,"REV_AT_EPOCH":23734,"BSTAR":0.00023922,"MEAN_MOTION_DOT":1.01e-6,"MEAN_MOTION_DDOT":0},{"OBJECT_NAME":"ONEWEB-0217","OBJECT_ID":"2021-031AM","EPOCH":"2026-03-26T07:45:23.271264","MEAN_MOTION":13.14504515,"ECCENTRICITY":0.0001969,"INCLINATION":87.8957,"RA_OF_ASC_NODE":306.2325,"ARG_OF_PERICENTER":77.9473,"MEAN_ANOMALY":282.1878,"EPHEMERIS_TYPE":0,"CLASSIFICATION_TYPE":"U","NORAD_CAT_ID":48245,"ELEMENT_SET_NO":999,"REV_AT_EPOCH":23729,"BSTAR":-0.00050896,"MEAN_MOTION_DOT":-1.76e-6,"MEAN_MOTION_DDOT":0},{"OBJECT_NAME":"ONEWEB-0211","OBJECT_ID":"2021-045A","EPOCH":"2026-03-26T07:53:54.525120","MEAN_MOTION":13.16192036,"ECCENTRICITY":0.0002398,"INCLINATION":87.8928,"RA_OF_ASC_NODE":275.6389,"ARG_OF_PERICENTER":86.5374,"MEAN_ANOMALY":273.6031,"EPHEMERIS_TYPE":0,"CLASSIFICATION_TYPE":"U","NORAD_CAT_ID":48767,"ELEMENT_SET_NO":999,"REV_AT_EPOCH":23354,"BSTAR":-0.00014728,"MEAN_MOTION_DOT":-4.3e-7,"MEAN_MOTION_DDOT":0},{"OBJECT_NAME":"ONEWEB-0223","OBJECT_ID":"2021-045B","EPOCH":"2026-03-26T06:58:43.596768","MEAN_MOTION":13.15548972,"ECCENTRICITY":0.0002132,"INCLINATION":87.8933,"RA_OF_ASC_NODE":275.7328,"ARG_OF_PERICENTER":93.9245,"MEAN_ANOMALY":266.2129,"EPHEMERIS_TYPE":0,"CLASSIFICATION_TYPE":"U","NORAD_CAT_ID":48768,"ELEMENT_SET_NO":999,"REV_AT_EPOCH":23350,"BSTAR":0.00036286,"MEAN_MOTION_DOT":1.49e-6,"MEAN_MOTION_DDOT":0},{"OBJECT_NAME":"ONEWEB-0230","OBJECT_ID":"2021-045C","EPOCH":"2026-03-26T11:46:13.405152","MEAN_MOTION":13.15548872,"ECCENTRICITY":0.0001595,"INCLINATION":87.8923,"RA_OF_ASC_NODE":275.7141,"ARG_OF_PERICENTER":94.9297,"MEAN_ANOMALY":265.2016,"EPHEMERIS_TYPE":0,"CLASSIFICATION_TYPE":"U","NORAD_CAT_ID":48769,"ELEMENT_SET_NO":999,"REV_AT_EPOCH":23379,"BSTAR":-0.00011332,"MEAN_MOTION_DOT":-3.0e-7,"MEAN_MOTION_DDOT":0},{"OBJECT_NAME":"ONEWEB-0237","OBJECT_ID":"2021-045D","EPOCH":"2026-03-26T06:01:40.827936","MEAN_MOTION":13.15548725,"ECCENTRICITY":0.0001919,"INCLINATION":87.8921,"RA_OF_ASC_NODE":275.7637,"ARG_OF_PERICENTER":97.6854,"MEAN_ANOMALY":262.4494,"EPHEMERIS_TYPE":0,"CLASSIFICATION_TYPE":"U","NORAD_CAT_ID":48770,"ELEMENT_SET_NO":999,"REV_AT_EPOCH":23348,"BSTAR":-0.00028354,"MEAN_MOTION_DOT":-9.4e-7,"MEAN_MOTION_DDOT":0},{"OBJECT_NAME":"ONEWEB-0235","OBJECT_ID":"2021-045E","EPOCH":"2026-03-26T12:43:15.595104","MEAN_MOTION":13.15549084,"ECCENTRICITY":0.0002145,"INCLINATION":87.8936,"RA_OF_ASC_NODE":275.6857,"ARG_OF_PERICENTER":96.5762,"MEAN_ANOMALY":263.5613,"EPHEMERIS_TYPE":0,"CLASSIFICATION_TYPE":"U","NORAD_CAT_ID":48771,"ELEMENT_SET_NO":999,"REV_AT_EPOCH":23351,"BSTAR":0.00024445,"MEAN_MOTION_DOT":1.05e-6,"MEAN_MOTION_DDOT":0},{"OBJECT_NAME":"ONEWEB-0242","OBJECT_ID":"2021-045F","EPOCH":"2026-03-25T23:47:28.324320","MEAN_MOTION":13.15549182,"ECCENTRICITY":0.00018023,"INCLINATION":87.8936,"RA_OF_ASC_NODE":275.7892,"ARG_OF_PERICENTER":98.1784,"MEAN_ANOMALY":261.955,"EPHEMERIS_TYPE":0,"CLASSIFICATION_TYPE":"U","NORAD_CAT_ID":48772,"ELEMENT_SET_NO":999,"REV_AT_EPOCH":23348,"BSTAR":-2.85653e-7,"MEAN_MOTION_DOT":1.3e-7,"MEAN_MOTION_DDOT":0},{"OBJECT_NAME":"ONEWEB-0241","OBJECT_ID":"2021-045G","EPOCH":"2026-03-26T10:26:21.636096","MEAN_MOTION":13.15549288,"ECCENTRICITY":0.0002087,"INCLINATION":87.8924,"RA_OF_ASC_NODE":275.7282,"ARG_OF_PERICENTER":89.4006,"MEAN_ANOMALY":270.7363,"EPHEMERIS_TYPE":0,"CLASSIFICATION_TYPE":"U","NORAD_CAT_ID":48773,"ELEMENT_SET_NO":999,"REV_AT_EPOCH":23345,"BSTAR":0.00054097,"MEAN_MOTION_DOT":2.16e-6,"MEAN_MOTION_DDOT":0}]
